{
    "version": 0.6,
    "generator": "Overpass API 0.7.62.1 084b4234",
    "osm3s": {
        "timestamp_osm_base": "2024-10-01T17:19:44Z",
        "copyright": "The data included in this document is from www.openstreetmap.org. The data is made available under ODbL."
    },
    "elements": [
        {
            "type": "node",
            "id": 1697487051,
            "lat": 53.0102721,
            "lon": 18.6048094,
            "tags": {
                "name": "Toru\u0144",
                "name:ar": "\u062a\u0648\u0631\u0648\u0646",
                "name:arz": "\u062a\u0648\u0631\u0648\u0646",
                "name:be": "\u0422\u043e\u0440\u0443\u043d\u044c",
                "name:be-tarask": "\u0422\u043e\u0440\u0443\u043d\u044c",
                "name:bg": "\u0422\u043e\u0440\u0443\u043d",
                "name:ckb": "\u062a\u06c6\u0631\u0648\u0646",
                "name:csb": "Tor\u0144",
                "name:de": "Thorn",
                "name:el": "\u03a4\u03cc\u03c1\u03bf\u03c5\u03bd",
                "name:eo": "Toruno",
                "name:es": "Tor\u00fan",
                "name:fa": "\u062a\u0648\u0631\u0648\u0646",
                "name:he": "\u05d8\u05d5\u05e8\u05d5\u05df",
                "name:hy": "\u0539\u0578\u0580\u0578\u0582\u0576",
                "name:ja": "\u30c8\u30eb\u30f3",
                "name:ka": "\u10e2\u10dd\u10e0\u10e3\u10dc\u10d8",
                "name:ko": "\ud1a0\ub8ec",
                "name:ky": "\u0422\u043e\u0440\u0443\u043d\u044c",
                "name:la": "Thorunium",
                "name:lt": "Torun\u0117",
                "name:lv": "Toru\u0146a",
                "name:mk": "\u0422\u043e\u0440\u0443\u045a",
                "name:nds": "Thorn",
                "name:os": "\u0422\u043e\u0440\u0443\u043d\u044c",
                "name:pl": "Toru\u0144",
                "name:pnb": "\u062a\u0648\u0631\u0648\u0646",
                "name:ru": "\u0422\u043e\u0440\u0443\u043d\u044c",
                "name:sk": "Toru\u0148",
                "name:sl": "Torunj",
                "name:sr": "\u0422\u043e\u0440\u0443\u045a",
                "name:szl": "Tor\u016f\u0144",
                "name:th": "\u0e15\u0e2d\u0e23\u0e38\u0e0d",
                "name:tt": "\u0422\u043e\u0440\u0443\u043d\u044c",
                "name:udm": "\u0422\u043e\u0440\u0443\u043d\u044c",
                "name:uk": "\u0422\u043e\u0440\u0443\u043d\u044c",
                "name:ur": "\u062a\u0648\u0631\u06cc\u0646\u06cc",
                "name:wuu": "\u6258\u4f26",
                "name:xmf": "\u10e2\u10dd\u10e0\u10e3\u10dc\u10d8",
                "name:yue": "\u6258\u502b",
                "name:zh": "\u6258\u4f26",
                "old_name": "Thorn",
                "place": "city",
                "population": "196935",
                "population:date": "2021-12-31",
                "postal_code": "87-100",
                "source:population": "http://stat.gov.pl/obszary-tematyczne/ludnosc/ludnosc/powierzchnia-i-ludnosc-w-przekroju-terytorialnym-w-2014-r-,7,11.html",
                "teryt:simc": "0982724",
                "teryt:terc": "0463011",
                "wikidata": "Q47554",
                "wikipedia": "pl:Toru\u0144"
            }
        },
        {
            "type": "node",
            "id": 2322339873,
            "lat": 53.0106828,
            "lon": 18.6042196,
            "tags": {
                "fee": "yes",
                "museum": "history",
                "museum_type": "national",
                "name": "Muzeum Okr\u0119gowe w Toruniu",
                "tourism": "museum"
            }
        },
        {
            "type": "node",
            "id": 2438335989,
            "lat": 53.0099351,
            "lon": 18.603949,
            "tags": {
                "amenity": "restaurant",
                "cuisine": "regional;polish;streetfood;tribute",
                "name": "Mi\u015b"
            }
        },
        {
            "type": "node",
            "id": 2483392922,
            "lat": 53.0104843,
            "lon": 18.6062855,
            "tags": {
                "addr:city": "Toru\u0144",
                "addr:housenumber": "30",
                "addr:postcode": "87-100",
                "addr:street": "Szeroka",
                "amenity": "pharmacy",
                "dispensing": "yes",
                "healthcare": "pharmacy",
                "name": "Centralna",
                "opening_hours": "Mo-Fr 09:00-21:00; Sa 09:00-17:00",
                "phone": "+48 56 655 55 13",
                "ref:csioz": "1103217"
            }
        },
        {
            "type": "node",
            "id": 2483465901,
            "lat": 53.0110414,
            "lon": 18.6043941,
            "tags": {
                "addr:housenumber": "1",
                "addr:street": "Che\u0142mi\u0144ska",
                "amenity": "pub",
                "name": "Jadwiga"
            }
        },
        {
            "type": "node",
            "id": 2483466093,
            "lat": 53.01096,
            "lon": 18.6048455,
            "tags": {
                "amenity": "pub",
                "cuisine": "burger;italian_pizza;pizza;polish;local",
                "diet:vegetarian": "yes",
                "name": "Kuranty"
            }
        },
        {
            "type": "node",
            "id": 2483466547,
            "lat": 53.0110782,
            "lon": 18.6048317,
            "tags": {
                "amenity": "restaurant",
                "name": "El Toro"
            }
        },
        {
            "type": "node",
            "id": 2483622429,
            "lat": 53.0099065,
            "lon": 18.6038028,
            "tags": {
                "beds": "50",
                "email": "freedom.backpackers@gmail.com",
                "internet_access": "wlan",
                "name": "Freedom",
                "phone": "+48 731 218 415",
                "rooms": "12",
                "tourism": "hostel",
                "website": "https://www.freedomtorun.pl/"
            }
        },
        {
            "type": "node",
            "id": 2483779373,
            "lat": 53.0103855,
            "lon": 18.605526,
            "tags": {
                "name": "Pijalnia czekolady E. Wedel",
                "opening_hours": "Mo-Sa 09:00-22:00; Su 10:00-21:00",
                "shop": "pastry",
                "website": "http://www.pokojski.com.pl"
            }
        },
        {
            "type": "node",
            "id": 3009679040,
            "lat": 53.0101441,
            "lon": 18.6046731,
            "tags": {
                "is_in:city": "Toru\u0144",
                "name": "Stare Miasto",
                "name:als": "Altstadt",
                "name:an": "Ciudat viella",
                "name:ar": "\u0648\u0631\u0634\u0648",
                "name:arz": "\u0627\u0644\u0628\u0644\u062f\u0647 \u0627\u0644\u0642\u062f\u064a\u0645\u0647",
                "name:ast": "Ciud\u00e1 vieya",
                "name:azb": "K\u00f6hn\u0259 \u015f\u0259h\u0259ri",
                "name:ba": "\u042d\u0441\u043a\u04d9\u0440\u0435 \u0448\u04d9\u04bb\u04d9\u0440",
                "name:be": "\u0421\u0442\u0430\u0440\u044b \u0413\u043e\u0440\u0430\u0434",
                "name:be-tarask": "\u0421\u0442\u0430\u0440\u044b \u0413\u043e\u0440\u0430\u0434",
                "name:bg": "\u0421\u0442\u0430\u0440 \u0433\u0440\u0430\u0434",
                "name:bn": "\u09aa\u09c1\u09b0\u09a8\u09cb \u09b6\u09b9\u09b0",
                "name:bs": "Stari Grad",
                "name:ca": "Centre hist\u00f2ric",
                "name:cs": "Star\u00e9 m\u011bsto",
                "name:cy": "Hen Ddinas",
                "name:da": "Den Gamle",
                "name:de": "Altstadt",
                "name:diq": "S\u00fbka kehane",
                "name:el": "\u03a3\u03c4\u03ac\u03c1\u03b5 \u039c\u03b9\u03ad\u03c3\u03c4\u03bf",
                "name:en": "Old Town",
                "name:eo": "Malnova Urbo",
                "name:es": "Centro hist\u00f3rico",
                "name:et": "ajalooline kesklinn",
                "name:eu": "Hiri Zaharra",
                "name:fa": "\u0648\u0631\u0634\u0648",
                "name:fat": "Kurow Dadaw",
                "name:fi": "Vanhakaupunki",
                "name:fr": "Vieille ville",
                "name:gd": "Sean Bhaile",
                "name:genitive": "Starego Miasta",
                "name:gl": "Centro hist\u00f3rico",
                "name:ha": "Tsohon garin",
                "name:hi": "\u0913\u0932\u094d\u0921 \u091f\u093e\u0909\u0928",
                "name:hr": "Stari grad",
                "name:hu": "\u00d3v\u00e1ros",
                "name:hy": "\u0540\u056b\u0576 \u054f\u0578\u0580\u0578\u0582\u0576",
                "name:id": "Kota Tua",
                "name:ie": "Old Cit\u00e9",
                "name:it": "Centro storico",
                "name:ja": "\u6b74\u53f2\u5730\u533a",
                "name:jv": "Kutha lawas",
                "name:ka": "\u10eb\u10d5\u10d4\u10da\u10d8 \u10e5\u10d0\u10da\u10d0\u10e5\u10d8",
                "name:kk": "\u0406\u0448\u043a\u0456 \u049b\u0430\u043b\u0430",
                "name:ko": "\uc2a4\ud0c0\ub808\ubbf8\uc544\uc2a4\ud1a0",
                "name:lad": "Sivdad Vieja",
                "name:lt": "Senamiestis",
                "name:mg": "Tan\u00e0na Taloha",
                "name:mhr": "\u0422\u043e\u0448\u0442\u043e \u043e\u043b\u0430",
                "name:mk": "\u0421\u0442\u0430\u0440 \u0433\u0440\u0430\u0434",
                "name:ml": "\u0d13\u0d7e\u0d21\u0d4d \u0d1f\u0d57\u0d7a",
                "name:mn": "\u0445\u0443\u0443\u0447\u0438\u043d \u0445\u043e\u0442",
                "name:mr": "\u091c\u0941\u0928\u0947 \u0936\u0939\u0930",
                "name:ms": "Kota Lama",
                "name:my": "\u101f\u1031\u102c\u1004\u103a",
                "name:ne": "\u092a\u0941\u0930\u093e\u0928\u094b \u0938\u0939\u0930",
                "name:nl": "Oude Stad",
                "name:nn": "Gamlebyen",
                "name:no": "Gamlebyen",
                "name:oc": "Ciutat vielha",
                "name:pcd": "Chinte historique",
                "name:pnb": "\u0642\u062f\u06cc\u0645 \u0634\u06c1\u0631",
                "name:pt": "Cidade Velha",
                "name:ro": "Ora\u0219ul vechi",
                "name:ru": "\u0421\u0442\u0430\u0440\u044b\u0439 \u0433\u043e\u0440\u043e\u0434",
                "name:sco": "Auld Ceety",
                "name:sh": "Staro mjesto",
                "name:sk": "Star\u00e9 mesto",
                "name:sl": "Zgodovinsko sredi\u0161\u010de",
                "name:sq": "Qyteti i vjet\u00ebr",
                "name:sr": "\u0421\u0442\u0430\u0440\u0438 \u0433\u0440\u0430\u0434",
                "name:sv": "Gamla staden",
                "name:ta": "\u0baa\u0bb4\u0bc8\u0baf \u0ba8\u0b95\u0bb0\u0bcd",
                "name:te": "\u0c2a\u0c3e\u0c24 \u0c28\u0c17\u0c30\u0c02",
                "name:tg": "\u0428\u0430\u04b3\u0440\u0438 \u049b\u0430\u0434\u0438\u043c\u0430",
                "name:tl": "Lumang Lungsod",
                "name:tr": "Eski Kent",
                "name:tw": "Kurow Dedaw",
                "name:uk": "\u0421\u0442\u0430\u0440\u0435 \u043c\u0456\u0441\u0442\u043e",
                "name:ur": "\u0642\u062f\u06cc\u0645 \u0634\u06c1\u0631",
                "name:uz": "Eski shahri",
                "name:vi": "Ph\u1ed1 c\u1ed5",
                "name:war": "Kadaan nga syudad",
                "name:wuu": "\u65e7\u57ce",
                "name:xmf": "\u10ef\u10d5\u10d4\u10e8\u10d8 \u10dc\u10dd\u10e6\u10d0",
                "name:yi": "\u05d0\u05dc\u05d8\u05e9\u05d8\u05d0\u05d8",
                "name:zh": "\u8001\u57ce",
                "place": "suburb",
                "source": "PRNG",
                "teryt:simc": "0982925"
            }
        },
        {
            "type": "node",
            "id": 3474836232,
            "lat": 53.0102845,
            "lon": 18.6040121,
            "tags": {
                "amenity": "fountain",
                "name": "Pomnik Flisaka",
                "name:cs": "Pam\u00e1tn\u00edk vora\u0159e",
                "name:en": "The Raftsman Fountain",
                "name:fr": "Monument du flotteur",
                "name:pl": "Pomnik Flisaka",
                "name:pt": "Monumento de flisak"
            }
        },
        {
            "type": "node",
            "id": 3556755015,
            "lat": 53.0101762,
            "lon": 18.6052693,
            "tags": {
                "artist_name": "Karol Furyk; Ma\u0142gorzata Wi\u0119c\u0142awska",
                "artwork_type": "statue",
                "name": "Osio\u0142",
                "name:en": "The Spanish Donken",
                "name:pl": "Osio\u0142",
                "start_date": "2007",
                "tourism": "artwork"
            }
        },
        {
            "type": "node",
            "id": 3668717879,
            "lat": 53.0109462,
            "lon": 18.605293,
            "tags": {
                "amenity": "cafe",
                "cuisine": "ice_cream;coffee_shop;cake",
                "internet_access": "wlan",
                "name": "Lenkiewicz Cafe"
            }
        },
        {
            "type": "node",
            "id": 3761456003,
            "lat": 53.0103384,
            "lon": 18.6046405,
            "tags": {
                "amenity": "atm",
                "name": "WBK",
                "operator": "Santander Bank Polska"
            }
        },
        {
            "type": "node",
            "id": 3761464812,
            "lat": 53.0093956,
            "lon": 18.6049444,
            "tags": {
                "addr:city": "Toru\u0144",
                "addr:housenumber": "3",
                "addr:postcode": "87-100",
                "addr:street": "Miko\u0142aja Kopernika",
                "amenity": "pub",
                "name": "Lizard King"
            }
        },
        {
            "type": "node",
            "id": 3854649757,
            "lat": 53.0100556,
            "lon": 18.6048462,
            "tags": {
                "addr:city": "Toru\u0144",
                "addr:housenumber": "4",
                "addr:postcode": "87-100",
                "addr:street": "Rynek Staromiejski",
                "amenity": "cafe",
                "cuisine": "regional",
                "name": "Sowa",
                "website": "https://www.sowa-restauracja.pl/torun/restauracja"
            }
        },
        {
            "type": "node",
            "id": 3891487032,
            "lat": 53.0107009,
            "lon": 18.6047244,
            "tags": {
                "amenity": "marketplace",
                "name": "Targowisko Staromiejskie"
            }
        },
        {
            "type": "node",
            "id": 3891504988,
            "lat": 53.0108558,
            "lon": 18.6043783,
            "tags": {
                "amenity": "marketplace",
                "name": "Targowisko Staromiejskie"
            }
        },
        {
            "type": "node",
            "id": 3891505265,
            "lat": 53.0104765,
            "lon": 18.6037239,
            "tags": {
                "amenity": "marketplace",
                "name": "Targowisko Staromiejskie",
                "name:be": "\u041a\u0456\u0440\u043c\u0430\u0448 \u0441\u0442\u0430\u0440\u0430\u043c\u0435\u0439\u0441\u043a\u0456"
            }
        },
        {
            "type": "node",
            "id": 4081945387,
            "lat": 53.0101301,
            "lon": 18.6061229,
            "tags": {
                "addr:city": "Toru\u0144",
                "addr:housenumber": "35",
                "addr:street": "Szeroka",
                "email": "biuro@domlegend.pl",
                "name": "Dom Legend Toru\u0144skich",
                "phone": "+48 56 621 07 14",
                "tourism": "attraction",
                "website": "https://domlegend.pl/"
            }
        },
        {
            "type": "node",
            "id": 4232515848,
            "lat": 53.0098381,
            "lon": 18.6039865,
            "tags": {
                "email": "torun.hostel@gmail.com",
                "guest_house": "bed_and_breakfast",
                "internet_access": "wlan",
                "internet_access:fee": "no",
                "name": "Angel",
                "phone": "+48 694 152 398",
                "tourism": "hostel",
                "website": "http://www.angelhostel.com/"
            }
        },
        {
            "type": "node",
            "id": 4598886469,
            "lat": 53.0103692,
            "lon": 18.6053977,
            "tags": {
                "name": "Lilou",
                "shop": "jewelry"
            }
        },
        {
            "type": "node",
            "id": 4598886470,
            "lat": 53.0102627,
            "lon": 18.6060616,
            "tags": {
                "brand": "Terranova",
                "brand:wikidata": "Q93585264",
                "name": "Terranova",
                "operator": "Terranova (Outlet)",
                "shop": "clothes"
            }
        },
        {
            "type": "node",
            "id": 4598886471,
            "lat": 53.0102409,
            "lon": 18.6057531,
            "tags": {
                "brand": "Hebe",
                "brand:wikidata": "Q113093841",
                "name": "Hebe",
                "shop": "chemist"
            }
        },
        {
            "type": "node",
            "id": 4598886488,
            "lat": 53.0104184,
            "lon": 18.6057303,
            "tags": {
                "amenity": "restaurant",
                "name": "JackPolako",
                "not:brand:wikidata": "Q5835668"
            }
        },
        {
            "type": "node",
            "id": 4598887889,
            "lat": 53.0102933,
            "lon": 18.6061984,
            "tags": {
                "addr:postcode": "87-100",
                "email": "torun@manufaktura-cukierkow.pl",
                "name": "Manufaktura Cukierk\u00f3w",
                "opening_hours": "Mo-Sa 10:00-21:00; Su 10:00-20:00",
                "phone": "669919969",
                "shop": "confectionery",
                "website": "https://www.cukiereczek.com.pl/"
            }
        },
        {
            "type": "node",
            "id": 4598887899,
            "lat": 53.0100157,
            "lon": 18.6045394,
            "tags": {
                "brand": "Rossmann",
                "brand:wikidata": "Q316004",
                "brand:wikipedia": "pl:Rossmann",
                "name": "Rossmann",
                "opening_hours": "Mo-Fr 09:00-20:30; Sa 09:00-20:00",
                "shop": "chemist"
            }
        },
        {
            "type": "node",
            "id": 4598887900,
            "lat": 53.0110788,
            "lon": 18.6047553,
            "tags": {
                "name": "Grey Wolf",
                "shop": "clothes"
            }
        },
        {
            "type": "node",
            "id": 4842991723,
            "lat": 53.0100088,
            "lon": 18.6051283,
            "tags": {
                "addr:housenumber": "31",
                "addr:postcode": "87-100",
                "addr:street": "\u017beglarska",
                "email": "biuro@copernicana.pl",
                "information": "office",
                "name": "Copernicana - przewodnik Toru\u0144, Toru\u0144 city tours",
                "opening_hours": "Mo-Fr 09:00-17:00",
                "phone": "566223002",
                "tourism": "information",
                "website": "https://copernicana.pl/"
            }
        },
        {
            "type": "node",
            "id": 5418582523,
            "lat": 53.0104423,
            "lon": 18.6059391,
            "tags": {
                "amenity": "pub",
                "name": "Baza Craft Beer"
            }
        },
        {
            "type": "node",
            "id": 5418583121,
            "lat": 53.0099774,
            "lon": 18.6043048,
            "tags": {
                "check_date:opening_hours": "2023-07-23",
                "name": "Toru\u0144skie Pierniki",
                "opening_hours": "Mo-Fr 09:00-20:00; Sa-Su 10:00-20:00",
                "shop": "confectionery"
            }
        },
        {
            "type": "node",
            "id": 5418583122,
            "lat": 53.0104209,
            "lon": 18.6052291,
            "tags": {
                "brand": "Flying Tiger Copenhagen",
                "brand:wikidata": "Q2786319",
                "name": "Flying Tiger Copenhagen",
                "opening_hours": "Mo-Sa 09:00-21:00; Su 10:00-19:00",
                "shop": "variety_store",
                "short_name": "Flying Tiger",
                "wheelchair": "no"
            }
        },
        {
            "type": "node",
            "id": 5774756845,
            "lat": 53.0097249,
            "lon": 18.6055935,
            "tags": {
                "name": "Dom Piernika",
                "shop": "confectionery"
            }
        },
        {
            "type": "node",
            "id": 5774756849,
            "lat": 53.0099357,
            "lon": 18.6054782,
            "tags": {
                "name": "Pami\u0105tki",
                "shop": "gift"
            }
        },
        {
            "type": "node",
            "id": 5774756851,
            "lat": 53.0097548,
            "lon": 18.6052718,
            "tags": {
                "amenity": "ice_cream",
                "name": "AstroBubble"
            }
        },
        {
            "type": "node",
            "id": 5774756852,
            "lat": 53.0099773,
            "lon": 18.605462,
            "tags": {
                "name": "Toru\u0144skie Pierniki",
                "shop": "confectionery"
            }
        },
        {
            "type": "node",
            "id": 6203452085,
            "lat": 53.0098447,
            "lon": 18.604495,
            "tags": {
                "amenity": "restaurant",
                "cuisine": "burger;barbecue;grill;polish;international",
                "name": "Artus",
                "name:en": "Artus Restaurant",
                "name:pl": "Artus Restaurasja",
                "name:ru": "\u0410\u0440\u0442\u0443\u0441"
            }
        },
        {
            "type": "node",
            "id": 7371031020,
            "lat": 53.0098852,
            "lon": 18.6039677,
            "tags": {
                "amenity": "restaurant",
                "cuisine": "regional;pierogi;dumplings",
                "name": "Pod Blaszanym Kotem"
            }
        },
        {
            "type": "node",
            "id": 7373486155,
            "lat": 53.0099436,
            "lon": 18.6039703,
            "tags": {
                "addr:city": "Toru\u0144",
                "addr:housenumber": "8",
                "addr:postcode": "87-100",
                "addr:street": "Rynek Staromiejski",
                "name": "Blaszany Kot",
                "note": "Wed\u0142ug legendy Kot przytopi\u0142 si\u0119 do cynkowanego dachu wypatruj\u0105c m\u0142odego ch\u0142opada, kt\u00f3rego powo\u0142ano na wojn\u0119.",
                "operator": "Kamienica pod Blaszanym Kotem",
                "tourism": "attraction"
            }
        },
        {
            "type": "node",
            "id": 9066648596,
            "lat": 53.0100856,
            "lon": 18.6054217,
            "tags": {
                "addr:city": "Toru\u0144",
                "addr:housenumber": "26",
                "addr:postcode": "87-100",
                "addr:street": "\u017beglarska",
                "email": "torun@simp.pl",
                "name": "Stowarzyszenie In\u017cynier\u00f3w i Technik\u00f3w Mechanik\u00f3w Polskich (SIMP) oddzia\u0142 w Toruniu",
                "office": "ngo",
                "phone": "+48 56 622-49-82",
                "website": "https://torun.simp.pl/"
            }
        },
        {
            "type": "node",
            "id": 10007497704,
            "lat": 53.009533,
            "lon": 18.60514,
            "tags": {
                "name": "Iga Sarzy\u0144ska. Wzrusza Toru\u0144. Pierniki i czekolada.",
                "shop": "confectionery"
            }
        },
        {
            "type": "node",
            "id": 10061126348,
            "lat": 53.009976,
            "lon": 18.6044704,
            "tags": {
                "amenity": "restaurant",
                "contact:facebook": "https://www.facebook.com/RestauracjaLuizjanaDworArtusa/",
                "cuisine": "cajun",
                "email": "artus@restauracjaluizjana.pl",
                "indoor_seating": "yes",
                "name": "LUIZJANA",
                "outdoor_seating": "yes",
                "phone": "+48 883 117 711",
                "website": "https://restauracjaluizjana.pl/luizjana-torun,5,pl.html"
            }
        },
        {
            "type": "node",
            "id": 10061126349,
            "lat": 53.010035,
            "lon": 18.6047051,
            "tags": {
                "amenity": "fast_food",
                "cuisine": "burger",
                "name": "Ale Ogie\u0144"
            }
        },
        {
            "type": "node",
            "id": 10061126350,
            "lat": 53.0100267,
            "lon": 18.6048217,
            "tags": {
                "name": "India",
                "shop": "fashion_accessories"
            }
        },
        {
            "type": "node",
            "id": 10061126352,
            "lat": 53.0100975,
            "lon": 18.605061,
            "tags": {
                "amenity": "restaurant",
                "name": "Sphinx"
            }
        },
        {
            "type": "node",
            "id": 10061126353,
            "lat": 53.0103595,
            "lon": 18.6052304,
            "tags": {
                "name": "Ewa",
                "shop": "bag",
                "wheelchair": "no"
            }
        },
        {
            "type": "node",
            "id": 10061126354,
            "lat": 53.0101604,
            "lon": 18.6053915,
            "tags": {
                "check_date": "2023-09-20",
                "information": "office",
                "level": "0",
                "name": "Informacja turystyczna",
                "opening_hours": "10:00-17:00",
                "tourism": "information"
            }
        },
        {
            "type": "node",
            "id": 10061126357,
            "lat": 53.0102188,
            "lon": 18.6056498,
            "tags": {
                "name": "Lokaah",
                "shop": "clothes"
            }
        },
        {
            "type": "node",
            "id": 10061126358,
            "lat": 53.010404,
            "lon": 18.6054726,
            "tags": {
                "amenity": "bureau_de_change",
                "name": "Ompex"
            }
        },
        {
            "type": "node",
            "id": 10061126360,
            "lat": 53.0102488,
            "lon": 18.60589,
            "tags": {
                "amenity": "restaurant",
                "name": "U Kucharzy"
            }
        },
        {
            "type": "node",
            "id": 10061126362,
            "lat": 53.0104789,
            "lon": 18.6060273,
            "tags": {
                "amenity": "restaurant",
                "cuisine": "thai",
                "name": "Bangkok"
            }
        },
        {
            "type": "node",
            "id": 10221981572,
            "lat": 53.0096482,
            "lon": 18.6053324,
            "tags": {
                "brand": "\u017babka",
                "brand:wikidata": "Q2589061",
                "name": "\u017babka",
                "name:pl": "\u017babka",
                "name:uk": "\u0416\u0430\u0431\u043a\u0430",
                "opening_hours": "Mo-Sa 06:00-23:00; Su 09:00-21:00",
                "shop": "convenience"
            }
        },
        {
            "type": "node",
            "id": 10225852073,
            "lat": 53.0111183,
            "lon": 18.6048853,
            "tags": {
                "amenity": "restaurant",
                "name": "Fryrogi"
            }
        },
        {
            "type": "node",
            "id": 10225852074,
            "lat": 53.0111482,
            "lon": 18.6049239,
            "tags": {
                "name": "Piernikowo",
                "shop": "confectionery"
            }
        },
        {
            "type": "node",
            "id": 10225852095,
            "lat": 53.0109795,
            "lon": 18.6058451,
            "tags": {
                "amenity": "library",
                "name": "O\u015aRODEK CZYTELNICTWA CHORYCH I NIEPE\u0141NOSPRAWNYCH"
            }
        },
        {
            "type": "node",
            "id": 10225852104,
            "lat": 53.0106436,
            "lon": 18.6062104,
            "tags": {
                "name": "KIND",
                "shop": "hearing_aids"
            }
        },
        {
            "type": "node",
            "id": 10997676872,
            "lat": 53.0105089,
            "lon": 18.6061058,
            "tags": {
                "name": "Pan Precel",
                "shop": "bakery"
            }
        },
        {
            "type": "node",
            "id": 10997717279,
            "lat": 53.0102995,
            "lon": 18.6064534,
            "tags": {
                "name": "Tatua\u017cex PDI",
                "shop": "tattoo"
            }
        },
        {
            "type": "node",
            "id": 10997717280,
            "lat": 53.0102881,
            "lon": 18.6063369,
            "tags": {
                "name": "Luisa Cerabo",
                "shop": "clothes"
            }
        },
        {
            "type": "node",
            "id": 10997717282,
            "lat": 53.0102392,
            "lon": 18.6058636,
            "tags": {
                "club": "yes",
                "name": "Night Klub Toru\u0144"
            }
        },
        {
            "type": "node",
            "id": 10997717283,
            "lat": 53.0104258,
            "lon": 18.6055742,
            "tags": {
                "name": "Edyta Bocianiak",
                "office": "lawyer"
            }
        },
        {
            "type": "node",
            "id": 10997717284,
            "lat": 53.0104133,
            "lon": 18.6055437,
            "tags": {
                "name": "Ekoinwest",
                "office": "yes"
            }
        },
        {
            "type": "node",
            "id": 10997717285,
            "lat": 53.0104067,
            "lon": 18.6055895,
            "tags": {
                "name": "Eko Technologia",
                "office": "yes"
            }
        },
        {
            "type": "node",
            "id": 10997717286,
            "lat": 53.0103775,
            "lon": 18.6053401,
            "tags": {
                "name": "PrawoOjczyznaHonor Jacek Brudzy\u0144ski Matia Wygra\u0142a Brudzy\u0144ska Adam wygralak",
                "office": "lawyer"
            }
        },
        {
            "type": "node",
            "id": 10997717287,
            "lat": 53.010068,
            "lon": 18.6049354,
            "tags": {
                "name": "Apartamenty",
                "tourism": "apartment"
            }
        },
        {
            "type": "node",
            "id": 10997717288,
            "lat": 53.010496,
            "lon": 18.6051951,
            "tags": {
                "amenity": "pub",
                "name": "Mentzen",
                "wheelchair": "no"
            }
        },
        {
            "type": "node",
            "id": 10997717353,
            "lat": 53.0105635,
            "lon": 18.6053604,
            "tags": {
                "name": "Phoenix Rising Tattoo",
                "shop": "tattoo"
            }
        },
        {
            "type": "node",
            "id": 10997717354,
            "lat": 53.0106433,
            "lon": 18.6055133,
            "tags": {
                "name": "Km Biuro",
                "office": "yes"
            }
        },
        {
            "type": "node",
            "id": 10997717355,
            "lat": 53.0106361,
            "lon": 18.6053908,
            "tags": {
                "name": "Itw",
                "office": "yes"
            }
        },
        {
            "type": "node",
            "id": 10997717356,
            "lat": 53.0106402,
            "lon": 18.6051325,
            "tags": {
                "amenity": "restaurant",
                "name": "Rybak\u00f3wka"
            }
        },
        {
            "type": "node",
            "id": 10997717357,
            "lat": 53.0107004,
            "lon": 18.6050579,
            "tags": {
                "amenity": "bureau_de_change",
                "name": "Adams"
            }
        },
        {
            "type": "node",
            "id": 10997717358,
            "lat": 53.0106838,
            "lon": 18.6051138,
            "tags": {
                "amenity": "restaurant",
                "name": "CoctailBar"
            }
        },
        {
            "type": "node",
            "id": 10997717359,
            "lat": 53.0107992,
            "lon": 18.60498,
            "tags": {
                "amenity": "cafe",
                "name": "Am Pm by Lenkiewcz"
            }
        },
        {
            "type": "node",
            "id": 11010107225,
            "lat": 53.0099002,
            "lon": 18.603914,
            "tags": {
                "name": "Miros\u0142awa Szyczewska",
                "office": "notary"
            }
        },
        {
            "type": "node",
            "id": 11010107226,
            "lat": 53.0098457,
            "lon": 18.6039076,
            "tags": {
                "name": "Izabela Beszczy\u0144ska Tomasz Gadomski Beata Wronkowska Daria cichocka",
                "office": "lawyer"
            }
        },
        {
            "type": "node",
            "id": 11010107227,
            "lat": 53.0098818,
            "lon": 18.6038923,
            "tags": {
                "name": "Danuta lakowska",
                "office": "financial_advisor"
            }
        },
        {
            "type": "node",
            "id": 11010142554,
            "lat": 53.0101002,
            "lon": 18.6053951,
            "tags": {
                "name": "Obok Osio\u0142ka",
                "shop": "gift"
            }
        },
        {
            "type": "node",
            "id": 11010142555,
            "lat": 53.0100536,
            "lon": 18.6054407,
            "tags": {
                "name": "Pierniki Oryginalne",
                "shop": "confectionery"
            }
        },
        {
            "type": "node",
            "id": 11010142556,
            "lat": 53.0099355,
            "lon": 18.60511,
            "tags": {
                "name": "Till Death tattoo",
                "shop": "tattoo"
            }
        },
        {
            "type": "node",
            "id": 11010142557,
            "lat": 53.0098786,
            "lon": 18.6051271,
            "tags": {
                "name": "Tomasz Lenz Pose\u0142 na Sejm RP Rados\u0142aw Sikorski Pose\u0142 do Parlamentu Europejskiego",
                "office": "yes"
            }
        },
        {
            "type": "node",
            "id": 11010142558,
            "lat": 53.0098046,
            "lon": 18.6051906,
            "tags": {
                "brand": "Gzella",
                "brand:wikidata": "Q110955605",
                "name": "Gzella",
                "shop": "butcher"
            }
        },
        {
            "type": "node",
            "id": 11010142559,
            "lat": 53.009626,
            "lon": 18.6053158,
            "tags": {
                "name": "Apartamenty \u017beglarska",
                "tourism": "apartment"
            }
        },
        {
            "type": "node",
            "id": 11010142560,
            "lat": 53.0096842,
            "lon": 18.6052791,
            "tags": {
                "name": "Cepelia",
                "shop": "gift"
            }
        },
        {
            "type": "node",
            "id": 11010142561,
            "lat": 53.0096492,
            "lon": 18.6052558,
            "tags": {
                "name": "Pierniczek",
                "shop": "confectionery"
            }
        },
        {
            "type": "node",
            "id": 11010142563,
            "lat": 53.0097176,
            "lon": 18.605297,
            "tags": {
                "name": "Studio Panamera",
                "shop": "hairdresser"
            }
        },
        {
            "type": "node",
            "id": 11010209434,
            "lat": 53.009903,
            "lon": 18.6055076,
            "tags": {
                "check_date": "2024-08-17",
                "name": "Kopernik",
                "payment:cash": "yes",
                "payment:credit_cards": "yes",
                "shop": "confectionery"
            }
        },
        {
            "type": "node",
            "id": 11010209435,
            "lat": 53.0099552,
            "lon": 18.6055514,
            "tags": {
                "name": "Zbigniew Malesza Monika sadowska",
                "office": "notary"
            }
        },
        {
            "type": "node",
            "id": 11010209436,
            "lat": 53.0099016,
            "lon": 18.6055453,
            "tags": {
                "name": "Piernikowa Przygoda",
                "shop": "gift"
            }
        },
        {
            "type": "node",
            "id": 11010209437,
            "lat": 53.0098443,
            "lon": 18.6055506,
            "tags": {
                "amenity": "restaurant",
                "name": "Nova22"
            }
        },
        {
            "type": "node",
            "id": 11010209438,
            "lat": 53.0098162,
            "lon": 18.6055645,
            "tags": {
                "name": "Nova22",
                "tourism": "apartment"
            }
        },
        {
            "type": "node",
            "id": 11010209439,
            "lat": 53.009696,
            "lon": 18.6056366,
            "tags": {
                "name": "Pamiatkowo",
                "shop": "gift"
            }
        },
        {
            "type": "node",
            "id": 11010209440,
            "lat": 53.0096526,
            "lon": 18.6056412,
            "tags": {
                "name": "Sklep z Piernikami",
                "shop": "confectionery"
            }
        },
        {
            "type": "node",
            "id": 11010209441,
            "lat": 53.0096854,
            "lon": 18.6056888,
            "tags": {
                "name": "Agata Wrzecionkowska",
                "office": "notary"
            }
        },
        {
            "type": "node",
            "id": 11010209442,
            "lat": 53.0096974,
            "lon": 18.6057433,
            "tags": {
                "name": "Iwona D\u0119bska-Gadza\u0142a",
                "office": "lawyer"
            }
        },
        {
            "type": "node",
            "id": 11010209444,
            "lat": 53.0094185,
            "lon": 18.6054226,
            "tags": {
                "name": "Inter Nomes",
                "office": "estate_agent"
            }
        },
        {
            "type": "node",
            "id": 11010209445,
            "lat": 53.009394,
            "lon": 18.6053775,
            "tags": {
                "name": "Hurtownia Pasmanterii",
                "shop": "sewing"
            }
        },
        {
            "type": "node",
            "id": 11037354628,
            "lat": 53.0105849,
            "lon": 18.6054637,
            "tags": {
                "name": "Europejskie Centrum filmowe Camerimage",
                "office": "yes"
            }
        },
        {
            "type": "node",
            "id": 11037354629,
            "lat": 53.010603,
            "lon": 18.6053905,
            "tags": {
                "name": "Towarzystwo Wiedzy spo\u0142ecznej",
                "office": "yes"
            }
        },
        {
            "type": "node",
            "id": 11037354630,
            "lat": 53.0106313,
            "lon": 18.6054509,
            "tags": {
                "name": "SeniorPol24",
                "office": "yes"
            }
        },
        {
            "type": "node",
            "id": 11037354631,
            "lat": 53.0106772,
            "lon": 18.6054583,
            "tags": {
                "name": "Strixspace",
                "office": "yes"
            }
        },
        {
            "type": "node",
            "id": 11037354632,
            "lat": 53.0105674,
            "lon": 18.605416,
            "tags": {
                "name": "Herbalife Nutrition",
                "office": "yes"
            }
        },
        {
            "type": "node",
            "id": 11037354633,
            "lat": 53.0106256,
            "lon": 18.6053322,
            "tags": {
                "healthcare": "psychotherapist",
                "name": "Violetta Fr\u0105czek"
            }
        },
        {
            "type": "node",
            "id": 11037354634,
            "lat": 53.0105517,
            "lon": 18.6054496,
            "tags": {
                "name": "Auge",
                "office": "yes"
            }
        },
        {
            "type": "node",
            "id": 11037354635,
            "lat": 53.0105396,
            "lon": 18.6053832,
            "tags": {
                "name": "Kama4You",
                "office": "yes"
            }
        },
        {
            "type": "node",
            "id": 11037354636,
            "lat": 53.0106131,
            "lon": 18.6055144,
            "tags": {
                "name": "Ekosystem",
                "office": "yes"
            }
        },
        {
            "type": "node",
            "id": 11037354637,
            "lat": 53.0106655,
            "lon": 18.6054131,
            "tags": {
                "name": "Kujawsko-Pomorska Agencja Finansowa",
                "office": "yes"
            }
        },
        {
            "type": "node",
            "id": 11037354638,
            "lat": 53.0106764,
            "lon": 18.6055052,
            "tags": {
                "name": "Kinga zi\u00f3\u0142kowska",
                "office": "insurance"
            }
        },
        {
            "type": "node",
            "id": 11037354639,
            "lat": 53.0106107,
            "lon": 18.6054804,
            "tags": {
                "name": "Historia PDT",
                "tourism": "museum"
            }
        },
        {
            "type": "node",
            "id": 11037354642,
            "lat": 53.0103356,
            "lon": 18.604737,
            "tags": {
                "name": "Za Kopernikiem",
                "shop": "gift"
            }
        },
        {
            "type": "node",
            "id": 11039794531,
            "lat": 53.0102902,
            "lon": 18.6064251,
            "tags": {
                "name": "StreetWearShop",
                "shop": "clothes"
            }
        },
        {
            "type": "node",
            "id": 11039794535,
            "lat": 53.0102309,
            "lon": 18.6064707,
            "tags": {
                "brand": "Spo\u0142em",
                "brand:wikidata": "Q11826043",
                "name": "Spo\u0142em",
                "shop": "convenience"
            }
        },
        {
            "type": "node",
            "id": 11039794548,
            "lat": 53.0097825,
            "lon": 18.6063514,
            "tags": {
                "name": "Telewizja Polska S. a. Oddzia\u0142 w Bydgoszczy redakcja zamiejscowa w toruniu",
                "office": "yes"
            }
        },
        {
            "type": "node",
            "id": 11039794549,
            "lat": 53.0097218,
            "lon": 18.6061019,
            "tags": {
                "denomination": "roman_catholic",
                "description": "Kancelaria rzymskokatolickiej parafii \u015awi\u0119tych Jana Chrzciciela i Jana Ewangelisty w Toruniu",
                "email": "parafia@katedrajanow.pl",
                "name": "Kancelaria parafialna",
                "office": "religion",
                "phone": "+48 56 657 14 80",
                "religion": "christian",
                "website": "katedratorun.pl"
            }
        },
        {
            "type": "node",
            "id": 11039794550,
            "lat": 53.0095537,
            "lon": 18.6051984,
            "tags": {
                "name": "Autorska Galeria Sztuki Andrzej Szoka",
                "tourism": "gallery"
            }
        },
        {
            "type": "node",
            "id": 11039794551,
            "lat": 53.0095335,
            "lon": 18.6049361,
            "tags": {
                "name": "Muzyczny Kram",
                "shop": "music"
            }
        },
        {
            "type": "node",
            "id": 11039794553,
            "lat": 53.0095098,
            "lon": 18.6044787,
            "tags": {
                "amenity": "language_school",
                "name": "Alliance Francaise"
            }
        },
        {
            "type": "node",
            "id": 11039794554,
            "lat": 53.0095054,
            "lon": 18.6044183,
            "tags": {
                "name": "Siesta",
                "shop": "travel_agency"
            }
        },
        {
            "type": "node",
            "id": 11039794555,
            "lat": 53.0095216,
            "lon": 18.6043359,
            "tags": {
                "name": "Kamienica Inicjatyw",
                "office": "yes"
            }
        },
        {
            "type": "node",
            "id": 11039794556,
            "lat": 53.0094848,
            "lon": 18.6043466,
            "tags": {
                "name": "Archipelag Imicjatyw",
                "office": "yes"
            }
        },
        {
            "type": "node",
            "id": 12115841931,
            "lat": 53.0096689,
            "lon": 18.605313,
            "tags": {
                "name": "Art Heart",
                "shop": "art"
            }
        },
        {
            "type": "node",
            "id": 12115841937,
            "lat": 53.0102369,
            "lon": 18.605789,
            "tags": {
                "club": "yes",
                "name": "VIP Gentlements Club"
            }
        },
        {
            "type": "node",
            "id": 12115841938,
            "lat": 53.010664,
            "lon": 18.6052015,
            "tags": {
                "name": "Muzeum Sztuki Dalekiego Wschodu",
                "tourism": "museum"
            }
        },
        {
            "type": "node",
            "id": 12115841939,
            "lat": 53.0109155,
            "lon": 18.6049078,
            "tags": {
                "amenity": "cafe",
                "brand": "Starbucks",
                "brand:wikidata": "Q37158",
                "cuisine": "coffee_shop",
                "name": "Starbucks",
                "official_name": "Starbucks Coffee",
                "takeaway": "yes"
            }
        }
    ]
}